NORAD_CAT_ID,OBJECT_NAME,OBJECT_TYPE,EPOCH,MEAN_MOTION,ECCENTRICITY,INCLINATION,RA_OF_ASC_NODE,ARG_OF_PERICENTER,MEAN_ANOMALY,BSTAR,MEAN_MOTION_DOT,MEAN_MOTION_DDOT,TLE_LINE0,TLE_LINE1,TLE_LINE2,SEMIMAJOR_AXIS,PERIOD,APOGEE,PERIGEE,DECAYED
52299.0,STARLINK-3759,PAYLOAD,2022-05-15 14:00:01,15.73242158,0.000262,53.2153,256.5207,14.7892,347.6255,-0.0009156,-0.0012745,0.0,0 STARLINK-3759,1 52299U 22041AQ  22135.58335648 -.00127450  00000-0 -91560-3 0  9996,2 52299  53.2153 256.5207 0002620  14.7892 347.6255 15.73242158  1300,6727.775,91.531,351.403,347.87699999999984,0.0
52299.0,STARLINK-3759,PAYLOAD,2022-05-15 22:00:00,15.73188694,0.0002712,53.2148,254.8715,13.9848,77.2694,0.00014127,0.00019243,0.0,0 STARLINK-3759,1 52299U 22041AQ  22135.91667824  .00019243  00000-0  14127-3 0  9999,2 52299  53.2148 254.8715 0002712  13.9848  77.2694 15.73188694  1300,6727.927,91.534,351.617,347.968,0.0
52299.0,STARLINK-3759,PAYLOAD,2022-05-16 06:00:02,15.73175243,0.0002548,53.2149,253.2199,16.1487,164.0774,0.00011445,0.00015455,0.0,0 STARLINK-3759,1 52299U 22041AQ  22136.25002315  .00015455  00000-0  11445-3 0  9996,2 52299  53.2149 253.2199 0002548  16.1487 164.0774 15.73175243  5091,6727.965999999999,91.535,351.545,348.116,0.0
52299.0,STARLINK-3759,PAYLOAD,2022-05-16 14:00:01,15.73195827,0.00028,53.2151,251.5726,16.4967,252.5538,-0.00010445,-0.00015255,0.0,0 STARLINK-3759,1 52299U 22041AQ  22136.58334491 -.00015255  00000-0 -10445-3 0  9994,2 52299  53.2151 251.5726 0002800  16.4967 252.5538 15.73195827  1309,6727.906999999997,91.533,351.656,347.88800000000015,0.0
52299.0,STARLINK-3759,PAYLOAD,2022-05-16 22:00:00,15.7320077,0.0002896,53.2151,249.9228,12.8656,345.1305,0.00025397,0.00035177,0.0,0 STARLINK-3759,1 52299U 22041AQ  22136.91667824  .00035177  00000-0  25397-3 0  9995,2 52299  53.2151 249.9228 0002896  12.8656 345.1305 15.73200770  1302,6727.893,91.533,351.706,347.81,0.0
52299.0,STARLINK-3759,PAYLOAD,2022-05-17 12:00:00,15.73239554,0.000297,53.2151,247.0362,16.2956,47.3581,-0.0002377,-0.00033913,0.0,0 STARLINK-3759,1 52299U 22041AQ  22137.50001157 -.00033913  00000-0 -23770-3 0  9993,2 52299  53.2151 247.0362 0002970  16.2956  47.3581 15.73239554  5295,6727.781999999997,91.531,351.646,347.649,0.0
52299.0,STARLINK-3759,PAYLOAD,2022-05-17 14:00:01,15.73234584,0.0003051,53.2149,246.6241,16.1579,159.8045,-0.00025781,-0.0003671,0.0,0 STARLINK-3759,1 52299U 22041AQ  22137.58335648 -.00036710  00000-0 -25781-3 0  9998,2 52299  53.2149 246.6241 0003051  16.1579 159.8045 15.73234584  1304,6727.797,91.531,351.714,347.6090000000001,0.0
52299.0,STARLINK-3759,PAYLOAD,2022-05-17 22:00:01,15.73235681,0.0003021,53.2142,244.974,11.2022,253.7358,-0.00059226,-0.00083076,0.0,0 STARLINK-3759,1 52299U 22041AQ  22137.91668981 -.00083076  00000-0 -59226-3 0  9992,2 52299  53.2142 244.9740 0003021  11.2022 253.7358 15.73235681  1308,6727.793000000002,91.531,351.691,347.626,0.0
52299.0,STARLINK-3759,PAYLOAD,2022-05-18 06:00:00,15.73188607,0.0002872,53.2144,243.3232,10.7069,343.0969,0.00045639,0.00063897,0.0,0 STARLINK-3759,1 52299U 22041AQ  22138.25001157  .00063897  00000-0  45639-3 0  9996,2 52299  53.2144 243.3232 0002872  10.7069 343.0969 15.73188607  5419,6727.928000000001,91.534,351.725,347.86,0.0
52299.0,STARLINK-3759,PAYLOAD,2022-05-18 12:00:00,15.73227126,0.0003072,53.2145,242.0878,12.5724,317.9292,-0.0003152,-0.00044688,0.0,0 STARLINK-3759,1 52299U 22041AQ  22138.50001157 -.00044688  00000-0 -31520-3 0  9997,2 52299  53.2145 242.0878 0003072  12.5724 317.9292 15.73227126  5456,6727.818,91.532,351.75,347.616,0.0
52299.0,STARLINK-3759,PAYLOAD,2022-05-18 14:00:01,15.7320281,0.0003166,53.2144,241.676,12.6106,70.1347,-3.2191e-05,-5.14e-05,0.0,0 STARLINK-3759,1 52299U 22041AQ  22138.58334491 -.00005140  00000-0 -32191-4 0  9991,2 52299  53.2144 241.6760 0003166  12.6106  70.1347 15.73202810  1301,6727.887,91.533,351.88199999999995,347.622,0.0
52299.0,STARLINK-3759,PAYLOAD,2022-05-18 22:00:00,15.732346599999998,0.0003234,53.2143,240.0259,11.6353,160.0405,-0.00071168,-0.00099511,0.0,0 STARLINK-3759,1 52299U 22041AQ  22138.91667824 -.00099511  00000-0 -71168-3 0  9998,2 52299  53.2143 240.0259 0003234  11.6353 160.0405 15.73234660  1307,6727.795999999999,91.531,351.837,347.486,0.0
52299.0,STARLINK-3759,PAYLOAD,2022-05-19 14:00:01,15.73134093,0.000342,53.214,236.7275,11.8941,337.6505,0.00045231,0.00063171,0.0,0 STARLINK-3759,1 52299U 22041AQ  22139.58335648  .00063171  00000-0  45231-3 0  9991,2 52299  53.2140 236.7275 0003420  11.8941 337.6505 15.73134093  1308,6728.083000000001,91.537,352.249,347.647,0.0
52299.0,STARLINK-3759,PAYLOAD,2022-05-19 22:00:00,15.73240867,0.0003391,53.2132,235.0773,9.9863,68.376,-0.00022352,-0.0003194,0.0,0 STARLINK-3759,1 52299U 22041AQ  22139.91667824 -.00031940  00000-0 -22352-3 0  9992,2 52299  53.2132 235.0773 0003391   9.9863  68.3760 15.73240867  5674,6727.779,91.531,351.925,347.362,0.0
52299.0,STARLINK-3759,PAYLOAD,2022-05-20 04:00:00,15.73037039,0.0003071,53.2156,233.8385,12.9922,42.1535,0.0001779,0.00024249,0.0,0 STARLINK-3759,1 52299U 22041AQ  22140.16667824  .00024249  00000-0  17790-3 0  9993,2 52299  53.2156 233.8385 0003071  12.9922  42.1535 15.73037039  5710,6728.36,91.543,352.291,348.159,0.0
52299.0,STARLINK-3759,PAYLOAD,2022-05-20 14:00:01,15.73192219,0.0003512,53.2136,231.7792,6.8127,249.4746,3.8127e-05,4.73e-05,0.0,0 STARLINK-3759,1 52299U 22041AQ  22140.58334491  .00004730  00000-0  38127-4 0  9991,2 52299  53.2136 231.7792 0003512   6.8127 249.4746 15.73192219  5781,6727.917,91.534,352.145,347.42,0.0
52299.0,STARLINK-3759,PAYLOAD,2022-05-20 22:00:00,15.73215644,0.0003543,53.2136,230.1284,8.2086,337.0337,9.0192e-05,0.00012065,0.0,0 STARLINK-3759,1 52299U 22041AQ  22140.91667824  .00012065  00000-0  90192-4 0  9997,2 52299  53.2136 230.1284 0003543   8.2086 337.0337 15.73215644  5838,6727.851,91.532,352.099,347.332,0.0
52299.0,STARLINK-3759,PAYLOAD,2022-05-21 06:00:00,15.73244082,0.0003484,53.2138,228.4778,12.458,61.7109,-0.0004269,-0.00060244,0.0,0 STARLINK-3759,1 52299U 22041AQ  22141.25001157 -.00060244  00000-0 -42690-3 0  9999,2 52299  53.2138 228.4778 0003484  12.4580  61.7109 15.73244082  1302,6727.769,91.531,351.978,347.291,0.0
52299.0,STARLINK-3759,PAYLOAD,2022-05-21 14:00:01,15.73189178,0.0003792,53.2135,226.8302,11.1672,152.0515,3.7165e-05,4.594e-05,0.0,0 STARLINK-3759,1 52299U 22041AQ  22141.58335648  .00004594  00000-0  37165-4 0  9996,2 52299  53.2135 226.8302 0003792  11.1672 152.0515 15.73189178  5936,6727.926,91.534,352.342,347.24,0.0
52299.0,STARLINK-3759,PAYLOAD,2022-05-21 22:00:00,15.73187253,0.0003688,53.2129,225.1793,9.0116,243.0743,0.00010218,0.00013737,0.0,0 STARLINK-3759,1 52299U 22041AQ  22141.91667824  .00013737  00000-0  10218-3 0  9995,2 52299  53.2129 225.1793 0003688   9.0116 243.0743 15.73187253  1301,6727.932,91.534,352.278,347.315,0.0
52299.0,STARLINK-3759,PAYLOAD,2022-05-22 14:00:01,15.73209528,0.0003854,53.2135,221.8815,8.7592,61.1776,-0.00051141,-0.00071851,0.0,0 STARLINK-3759,1 52299U 22041AQ  22142.58334491 -.00071851  00000-0 -51141-3 0  9993,2 52299  53.2135 221.8815 0003854   8.7592  61.1776 15.73209528  1300,6727.868,91.533,352.326,347.14,0.0
52299.0,STARLINK-3759,PAYLOAD,2022-05-22 22:00:01,15.73154242,0.0003806,53.2136,220.2304,5.5407,153.3943,0.00031602,0.00043888,0.0,0 STARLINK-3759,1 52299U 22041AQ  22142.91668981  .00043888  00000-0  31602-3 0  9991,2 52299  53.2136 220.2304 0003806   5.5407 153.3943 15.73154242  6143,6728.026,91.536,352.451,347.33,0.0
52299.0,STARLINK-3759,PAYLOAD,2022-05-23 14:00:01,15.7322272,0.0004026,53.2137,216.9329,4.5381,332.1517,-0.0005785,-0.00081156,0.0,0 STARLINK-3759,1 52299U 22041AQ  22143.58334491 -.00081156  00000-0 -57850-3 0  9996,2 52299  53.2137 216.9329 0004026   4.5381 332.1517 15.73222720  1302,6727.83,91.532,352.404,346.987,0.0
52299.0,STARLINK-3759,PAYLOAD,2022-05-23 20:00:01,15.7320404,0.0003999,53.213,215.6946,2.8994,310.4976,-0.00067359,-0.00094174,0.0,0 STARLINK-3759,1 52299U 22041AQ  22143.83334491 -.00094174  00000-0 -67359-3 0  9993,2 52299  53.2130 215.6946 0003999   2.8994 310.4976 15.73204040  6291,6727.884,91.533,352.439,347.05800000000005,0.0
52299.0,STARLINK-3759,PAYLOAD,2022-05-23 22:00:01,15.73172598,0.0003909,53.2132,215.2816,2.8513,62.845,-0.00032815,-0.00046392,0.0,0 STARLINK-3759,1 52299U 22041AQ  22143.91668981 -.00046392  00000-0 -32815-3 0  9994,2 52299  53.2132 215.2816 0003909   2.8513  62.8450 15.73172598  1307,6727.973000000001,91.535,352.468,347.208,0.0
52299.0,STARLINK-3759,PAYLOAD,2022-05-24 04:00:00,15.7320297,0.0003836,53.2145,214.0432,3.2246,39.1189,0.0003104,0.00043184,0.0,0 STARLINK-3759,1 52299U 22041AQ  22144.16667824  .00043184  00000-0  31040-3 0  9990,2 52299  53.2145 214.0432 0003836   3.2246  39.1189 15.73202970  6342,6727.887,91.533,352.333,347.171,0.0
52299.0,STARLINK-3759,PAYLOAD,2022-05-24 12:58:09,15.73214701,0.0003897,53.2137,212.1943,12.1314,347.9799,3.0242e-05,3.626e-05,0.0,0 STARLINK-3759,1 52299U 22041AQ  22144.54038983  .00003626  00000-0  30242-4 0  9991,2 52299  53.2137 212.1943 0003897  12.1314 347.9799 15.73214701  5184,6727.853,91.532,352.34,347.096,0.0
52299.0,STARLINK-3759,PAYLOAD,2022-05-24 14:00:01,15.73160502,0.0004161,53.2138,211.9841,359.2083,244.3165,0.0005375,0.00075393,0.0,0 STARLINK-3759,1 52299U 22041AQ  22144.58334491  .00075393  00000-0  53750-3 0  9996,2 52299  53.2138 211.9841 0004161 359.2083 244.3165 15.73160502  6415,6728.0080000000025,91.535,352.672,347.0730000000001,0.0
52299.0,STARLINK-3759,PAYLOAD,2022-05-24 22:00:00,15.732228,0.0004008999999999,53.214,210.3328,358.7359,333.7156,-0.00027675,-0.0003934,0.0,0 STARLINK-3759,1 52299U 22041AQ  22144.91667824 -.00039340  00000-0 -27675-3 0  9993,2 52299  53.2140 210.3328 0004009 358.7359 333.7156 15.73222800  1308,6727.83,91.532,352.392,346.99800000000016,0.0
